[{"OBJECT_NAME":"STARLINK-35028","OBJECT_ID":"2025-191C","EPOCH":"2026-03-09T14:53:25.895040","MEAN_MOTION":15.05649242,"ECCENTRICITY":0.0002533,"INCLINATION":97.602,"RA_OF_ASC_NODE":301.5308,"ARG_OF_PERICENTER":89.3029,"MEAN_ANOMALY":270.8488,"EPHEMERIS_TYPE":0,"CLASSIFICATION_TYPE":"U","NORAD_CAT_ID":65381,"ELEMENT_SET_NO":999,"REV_AT_EPOCH":3026,"BSTAR":0.0003301,"MEAN_MOTION_DOT":4.705e-5,"MEAN_MOTION_DDOT":0},{"OBJECT_NAME":"SL-14 DEB","OBJECT_ID":"1989-080G","EPOCH":"2026-03-09T15:08:26.583936","MEAN_MOTION":13.18681492,"ECCENTRICITY":0.0881405,"INCLINATION":82.6856,"RA_OF_ASC_NODE":122.8071,"ARG_OF_PERICENTER":209.368,"MEAN_ANOMALY":145.5064,"EPHEMERIS_TYPE":0,"CLASSIFICATION_TYPE":"U","NORAD_CAT_ID":20308,"ELEMENT_SET_NO":999,"REV_AT_EPOCH":70613,"BSTAR":0.0010519,"MEAN_MOTION_DOT":3.505e-5,"MEAN_MOTION_DDOT":0}]
